siteid,latitude_x,longitude_x,target_siteid,tos_field_ph,shire,stationCode,stationName,latitude_y,longitude_y,dateTime,rainfall.yearToDate
2007190003,-22.702,114.898,TS0321,7.5,ashburton,KARI,Karijini,-22.493556,118.47145,2022-02-22,240.8
2007190003,-22.702,114.898,TS0321,7.5,ashburton,MILL,Millstream Chichester National Park,-21.595033,117.072721,2022-01-28,151.4
2007190004,-22.736,116.122,TS0339,7.5,ashburton,KARI,Karijini,-22.493556,118.47145,2022-02-22,240.8
2007190004,-22.736,116.122,TS0339,7.5,ashburton,MILL,Millstream Chichester National Park,-21.595033,117.072721,2022-01-28,151.4
2007190048,-21.728,117.257,TS0310,8.5,ashburton,KARI,Karijini,-22.493556,118.47145,2022-02-22,240.8
2007190048,-21.728,117.257,TS0310,8.5,ashburton,MILL,Millstream Chichester National Park,-21.595033,117.072721,2022-01-28,151.4
2007190076,-21.771,115.406,TS0304,7.0,ashburton,KARI,Karijini,-22.493556,118.47145,2022-02-22,240.8
2007190076,-21.771,115.406,TS0304,7.0,ashburton,MILL,Millstream Chichester National Park,-21.595033,117.072721,2022-01-28,151.4
2007190135,-22.104,118.284,TS0319,8.5,ashburton,KARI,Karijini,-22.493556,118.47145,2022-02-22,240.8
2007190135,-22.104,118.284,TS0319,8.5,ashburton,MILL,Millstream Chichester National Park,-21.595033,117.072721,2022-01-28,151.4
2007190185,-22.913,116.284,TS0340,7.5,ashburton,KARI,Karijini,-22.493556,118.47145,2022-02-22,240.8
2007190185,-22.913,116.284,TS0340,7.5,ashburton,MILL,Millstream Chichester National Park,-21.595033,117.072721,2022-01-28,151.4
2007190213,-22.7,114.898,TS0321,7.5,ashburton,KARI,Karijini,-22.493556,118.47145,2022-02-22,240.8
2007190213,-22.7,114.898,TS0321,7.5,ashburton,MILL,Millstream Chichester National Park,-21.595033,117.072721,2022-01-28,151.4
2007190309,-23.376,117.039,TS0350,7.5,ashburton,KARI,Karijini,-22.493556,118.47145,2022-02-22,240.8
2007190309,-23.376,117.039,TS0350,7.5,ashburton,MILL,Millstream Chichester National Park,-21.595033,117.072721,2022-01-28,151.4
2007190386,-21.615,115.925,TS0299,8.5,ashburton,KARI,Karijini,-22.493556,118.47145,2022-02-22,240.8
2007190386,-21.615,115.925,TS0299,8.5,ashburton,MILL,Millstream Chichester National Park,-21.595033,117.072721,2022-01-28,151.4
2007190411,-23.465,117.572,TS0356,8.0,ashburton,KARI,Karijini,-22.493556,118.47145,2022-02-22,240.8
2007190411,-23.465,117.572,TS0356,8.0,ashburton,MILL,Millstream Chichester National Park,-21.595033,117.072721,2022-01-28,151.4
2007190437,-23.624,117.587,TS0357,7.5,ashburton,KARI,Karijini,-22.493556,118.47145,2022-02-22,240.8
2007190437,-23.624,117.587,TS0357,7.5,ashburton,MILL,Millstream Chichester National Park,-21.595033,117.072721,2022-01-28,151.4
2007190528,-22.205,114.785,TS0315,6.5,ashburton,KARI,Karijini,-22.493556,118.47145,2022-02-22,240.8
2007190528,-22.205,114.785,TS0315,6.5,ashburton,MILL,Millstream Chichester National Park,-21.595033,117.072721,2022-01-28,151.4
2007191003,-22.729,115.698,TS0337,7.5,ashburton,KARI,Karijini,-22.493556,118.47145,2022-02-22,240.8
2007191003,-22.729,115.698,TS0337,7.5,ashburton,MILL,Millstream Chichester National Park,-21.595033,117.072721,2022-01-28,151.4
2007191006,-22.339,119.241,TS0326,8.0,ashburton,KARI,Karijini,-22.493556,118.47145,2022-02-22,240.8
2007191006,-22.339,119.241,TS0326,8.0,ashburton,MILL,Millstream Chichester National Park,-21.595033,117.072721,2022-01-28,151.4
2007191135,-22.518,116.605,TS0331,7.5,ashburton,KARI,Karijini,-22.493556,118.47145,2022-02-22,240.8
2007191135,-22.518,116.605,TS0331,7.5,ashburton,MILL,Millstream Chichester National Park,-21.595033,117.072721,2022-01-28,151.4
2007191253,-22.914,116.284,TS0340,7.5,ashburton,KARI,Karijini,-22.493556,118.47145,2022-02-22,240.8
2007191253,-22.914,116.284,TS0340,7.5,ashburton,MILL,Millstream Chichester National Park,-21.595033,117.072721,2022-01-28,151.4
2007191369,-22.666,115.679,TS0336,7.5,ashburton,KARI,Karijini,-22.493556,118.47145,2022-02-22,240.8
2007191369,-22.666,115.679,TS0336,7.5,ashburton,MILL,Millstream Chichester National Park,-21.595033,117.072721,2022-01-28,151.4
2007191415,-21.98,115.033,TS0311,7.0,ashburton,KARI,Karijini,-22.493556,118.47145,2022-02-22,240.8
2007191415,-21.98,115.033,TS0311,7.0,ashburton,MILL,Millstream Chichester National Park,-21.595033,117.072721,2022-01-28,151.4
2007190016,-30.857,119.927,TS0552,8.0,yilgarn,ME005,Moorine Rock,-31.4139944,119.0341806,2022-02-22,17.2
2007190016,-30.857,119.927,TS0552,8.0,yilgarn,SB002,Muntadgin East,-31.735761,118.85894,2022-02-22,24.2
2007190016,-30.857,119.927,TS0552,8.0,yilgarn,YS,Yilgarn,-31.915622,119.256055,2022-02-22,34.8
2007190229,-31.228,119.681,TS0555,6.5,yilgarn,ME005,Moorine Rock,-31.4139944,119.0341806,2022-02-22,17.2
2007190229,-31.228,119.681,TS0555,6.5,yilgarn,SB002,Muntadgin East,-31.735761,118.85894,2022-02-22,24.2
2007190229,-31.228,119.681,TS0555,6.5,yilgarn,YS,Yilgarn,-31.915622,119.256055,2022-02-22,34.8
2007190275,-30.312,119.021,TS0538,6.5,yilgarn,ME005,Moorine Rock,-31.4139944,119.0341806,2022-02-22,17.2
2007190275,-30.312,119.021,TS0538,6.5,yilgarn,SB002,Muntadgin East,-31.735761,118.85894,2022-02-22,24.2
2007190275,-30.312,119.021,TS0538,6.5,yilgarn,YS,Yilgarn,-31.915622,119.256055,2022-02-22,34.8
2007190805,-31.846,119.999,TS0579,5.5,yilgarn,ME005,Moorine Rock,-31.4139944,119.0341806,2022-02-22,17.2
2007190805,-31.846,119.999,TS0579,5.5,yilgarn,SB002,Muntadgin East,-31.735761,118.85894,2022-02-22,24.2
2007190805,-31.846,119.999,TS0579,5.5,yilgarn,YS,Yilgarn,-31.915622,119.256055,2022-02-22,34.8
2007190890,-31.202,119.294,TS0553,8.0,yilgarn,ME005,Moorine Rock,-31.4139944,119.0341806,2022-02-22,17.2
2007190890,-31.202,119.294,TS0553,8.0,yilgarn,SB002,Muntadgin East,-31.735761,118.85894,2022-02-22,24.2
2007190890,-31.202,119.294,TS0553,8.0,yilgarn,YS,Yilgarn,-31.915622,119.256055,2022-02-22,34.8
2007190017,-20.719,120.924,TS0279,6.5,east pilbara,PD,Pardoo,-19.98714,119.95279,2022-02-22,50.0
2007190206,-20.855,119.766,TS0290,6.5,east pilbara,PD,Pardoo,-19.98714,119.95279,2022-02-22,50.0
2007190310,-20.204,121.314,TS0269,5.5,east pilbara,PD,Pardoo,-19.98714,119.95279,2022-02-22,50.0
2007190336,-23.173,120.02,TS0346,6.5,east pilbara,PD,Pardoo,-19.98714,119.95279,2022-02-22,50.0
2007190339,-22.444,119.664,TS0329,7.5,east pilbara,PD,Pardoo,-19.98714,119.95279,2022-02-22,50.0
2007190349,-20.857,120.689,TS0282,6.5,east pilbara,PD,Pardoo,-19.98714,119.95279,2022-02-22,50.0
2007190402,-21.343,119.352,TS0298,7.5,east pilbara,PD,Pardoo,-19.98714,119.95279,2022-02-22,50.0
2007190658,-20.772,120.737,TS0280,6.5,east pilbara,PD,Pardoo,-19.98714,119.95279,2022-02-22,50.0
2007190917,-22.646,119.969,TS0334,8.0,east pilbara,PD,Pardoo,-19.98714,119.95279,2022-02-22,50.0
2007190932,-22.861,120.289,TS0341,6.0,east pilbara,PD,Pardoo,-19.98714,119.95279,2022-02-22,50.0
2007191436,-20.858,120.689,TS0282,6.5,east pilbara,PD,Pardoo,-19.98714,119.95279,2022-02-22,50.0
2007190018,-30.963,118.796,TS0554,6.5,westonia,BR,Bonnie Rock,-30.599684,118.531384,2022-02-22,37.4
2007190018,-30.963,118.796,TS0554,6.5,westonia,WS001,Westonia,-31.2283,118.5931,2022-02-22,44.6
2007190039,-27.533,115.217,TS0515,6.5,northampton,BI,Binnu,-28.051,114.69575,2022-02-22,0.6
2007190039,-27.533,115.217,TS0515,6.5,northampton,BI002,Binnu West,-28.014442,114.406062,2022-02-22,0.0
2007190039,-27.533,115.217,TS0515,6.5,northampton,AWS,DBCA mobile/trailer AWS,-27.68678,114.26157,2018-11-02,0.0
2007190039,-27.533,115.217,TS0515,6.5,northampton,MEAN,Meanarra Tower,-27.698975,114.222944,2021-11-19,0.0
2007190039,-27.533,115.217,TS0515,6.5,northampton,NW001,Northampton West,-28.300442,114.508197,2022-02-22,0.0
2007190039,-27.533,115.217,TS0515,6.5,northampton,YU003,Yuna North,-28.120861,114.962611,2022-02-22,2.4
2007190475,-27.63,114.249,TS0518,7.0,northampton,BI,Binnu,-28.051,114.69575,2022-02-22,0.6
2007190475,-27.63,114.249,TS0518,7.0,northampton,BI002,Binnu West,-28.014442,114.406062,2022-02-22,0.0
2007190475,-27.63,114.249,TS0518,7.0,northampton,AWS,DBCA mobile/trailer AWS,-27.68678,114.26157,2018-11-02,0.0
2007190475,-27.63,114.249,TS0518,7.0,northampton,MEAN,Meanarra Tower,-27.698975,114.222944,2021-11-19,0.0
2007190475,-27.63,114.249,TS0518,7.0,northampton,NW001,Northampton West,-28.300442,114.508197,2022-02-22,0.0
2007190475,-27.63,114.249,TS0518,7.0,northampton,YU003,Yuna North,-28.120861,114.962611,2022-02-22,2.4
2007190693,-27.395,114.137,TS0634,7.0,northampton,BI,Binnu,-28.051,114.69575,2022-02-22,0.6
2007190693,-27.395,114.137,TS0634,7.0,northampton,BI002,Binnu West,-28.014442,114.406062,2022-02-22,0.0
2007190693,-27.395,114.137,TS0634,7.0,northampton,AWS,DBCA mobile/trailer AWS,-27.68678,114.26157,2018-11-02,0.0
2007190693,-27.395,114.137,TS0634,7.0,northampton,MEAN,Meanarra Tower,-27.698975,114.222944,2021-11-19,0.0
2007190693,-27.395,114.137,TS0634,7.0,northampton,NW001,Northampton West,-28.300442,114.508197,2022-02-22,0.0
2007190693,-27.395,114.137,TS0634,7.0,northampton,YU003,Yuna North,-28.120861,114.962611,2022-02-22,2.4
2007190984,-27.532,115.218,TS0515,7.5,northampton,BI,Binnu,-28.051,114.69575,2022-02-22,0.6
2007190984,-27.532,115.218,TS0515,7.5,northampton,BI002,Binnu West,-28.014442,114.406062,2022-02-22,0.0
2007190984,-27.532,115.218,TS0515,7.5,northampton,AWS,DBCA mobile/trailer AWS,-27.68678,114.26157,2018-11-02,0.0
2007190984,-27.532,115.218,TS0515,7.5,northampton,MEAN,Meanarra Tower,-27.698975,114.222944,2021-11-19,0.0
2007190984,-27.532,115.218,TS0515,7.5,northampton,NW001,Northampton West,-28.300442,114.508197,2022-02-22,0.0
2007190984,-27.532,115.218,TS0515,7.5,northampton,YU003,Yuna North,-28.120861,114.962611,2022-02-22,2.4
2007191316,-28.212,114.32,TS0425,5.0,northampton,BI,Binnu,-28.051,114.69575,2022-02-22,0.6
2007191316,-28.212,114.32,TS0425,5.0,northampton,BI002,Binnu West,-28.014442,114.406062,2022-02-22,0.0
2007191316,-28.212,114.32,TS0425,5.0,northampton,AWS,DBCA mobile/trailer AWS,-27.68678,114.26157,2018-11-02,0.0
2007191316,-28.212,114.32,TS0425,5.0,northampton,MEAN,Meanarra Tower,-27.698975,114.222944,2021-11-19,0.0
2007191316,-28.212,114.32,TS0425,5.0,northampton,NW001,Northampton West,-28.300442,114.508197,2022-02-22,0.0
2007191316,-28.212,114.32,TS0425,5.0,northampton,YU003,Yuna North,-28.120861,114.962611,2022-02-22,2.4
2007190052,-34.072,119.55,TS0620,6.0,ravensthorpe,CS002,Cascade NW,-33.3588,120.71417,2022-02-22,27.0
2007190052,-34.072,119.55,TS0620,6.0,ravensthorpe,JP001,Jerdacuttup,-33.77361,120.45667,2022-02-22,31.2
2007190052,-34.072,119.55,TS0620,6.0,ravensthorpe,MD001,Mount Madden East,-33.183297,120.08432,2022-02-22,18.6
2007190052,-34.072,119.55,TS0620,6.0,ravensthorpe,MP002,Munglinup,-33.78222,120.813056,2022-02-22,28.0
2007190052,-34.072,119.55,TS0620,6.0,ravensthorpe,RA,Ravensthorpe,-33.435863,119.730175,2022-02-22,13.0
2007190052,-34.072,119.55,TS0620,6.0,ravensthorpe,RA002,Ravensthorpe Dam #4,-33.636636,120.054372,2022-02-22,26.8
2007190052,-34.072,119.55,TS0620,6.0,ravensthorpe,WR001,West River,-33.687344,119.64875,2022-02-22,25.8
2007190302,-33.888,119.864,TS0618,6.5,ravensthorpe,CS002,Cascade NW,-33.3588,120.71417,2022-02-22,27.0
2007190302,-33.888,119.864,TS0618,6.5,ravensthorpe,JP001,Jerdacuttup,-33.77361,120.45667,2022-02-22,31.2
2007190302,-33.888,119.864,TS0618,6.5,ravensthorpe,MD001,Mount Madden East,-33.183297,120.08432,2022-02-22,18.6
2007190302,-33.888,119.864,TS0618,6.5,ravensthorpe,MP002,Munglinup,-33.78222,120.813056,2022-02-22,28.0
2007190302,-33.888,119.864,TS0618,6.5,ravensthorpe,RA,Ravensthorpe,-33.435863,119.730175,2022-02-22,13.0
2007190302,-33.888,119.864,TS0618,6.5,ravensthorpe,RA002,Ravensthorpe Dam #4,-33.636636,120.054372,2022-02-22,26.8
2007190302,-33.888,119.864,TS0618,6.5,ravensthorpe,WR001,West River,-33.687344,119.64875,2022-02-22,25.8
2007190421,-33.772,119.957,TS0611,7.5,ravensthorpe,CS002,Cascade NW,-33.3588,120.71417,2022-02-22,27.0
2007190421,-33.772,119.957,TS0611,7.5,ravensthorpe,JP001,Jerdacuttup,-33.77361,120.45667,2022-02-22,31.2
2007190421,-33.772,119.957,TS0611,7.5,ravensthorpe,MD001,Mount Madden East,-33.183297,120.08432,2022-02-22,18.6
2007190421,-33.772,119.957,TS0611,7.5,ravensthorpe,MP002,Munglinup,-33.78222,120.813056,2022-02-22,28.0
2007190421,-33.772,119.957,TS0611,7.5,ravensthorpe,RA,Ravensthorpe,-33.435863,119.730175,2022-02-22,13.0
2007190421,-33.772,119.957,TS0611,7.5,ravensthorpe,RA002,Ravensthorpe Dam #4,-33.636636,120.054372,2022-02-22,26.8
2007190421,-33.772,119.957,TS0611,7.5,ravensthorpe,WR001,West River,-33.687344,119.64875,2022-02-22,25.8
2007191088,-33.876,120.227,TS0619,6.5,ravensthorpe,CS002,Cascade NW,-33.3588,120.71417,2022-02-22,27.0
2007191088,-33.876,120.227,TS0619,6.5,ravensthorpe,JP001,Jerdacuttup,-33.77361,120.45667,2022-02-22,31.2
2007191088,-33.876,120.227,TS0619,6.5,ravensthorpe,MD001,Mount Madden East,-33.183297,120.08432,2022-02-22,18.6
2007191088,-33.876,120.227,TS0619,6.5,ravensthorpe,MP002,Munglinup,-33.78222,120.813056,2022-02-22,28.0
2007191088,-33.876,120.227,TS0619,6.5,ravensthorpe,RA,Ravensthorpe,-33.435863,119.730175,2022-02-22,13.0
2007191088,-33.876,120.227,TS0619,6.5,ravensthorpe,RA002,Ravensthorpe Dam #4,-33.636636,120.054372,2022-02-22,26.8
2007191088,-33.876,120.227,TS0619,6.5,ravensthorpe,WR001,West River,-33.687344,119.64875,2022-02-22,25.8
2007190058,-34.935,117.473,TS0627,5.0,albany,KO002,Kojaneerup South,-34.575486,118.260501,2022-02-22,5.2
2007190058,-34.935,117.473,TS0627,5.0,albany,MP,Manypeaks,-34.779833,118.217167,2022-02-22,11.2
2007190058,-34.935,117.473,TS0627,5.0,albany,WE,Wellstead,-34.489212,118.619261,2022-02-22,15.8
2007190557,-34.888,118.001,TS0630,5.5,albany,KO002,Kojaneerup South,-34.575486,118.260501,2022-02-22,5.2
2007190557,-34.888,118.001,TS0630,5.5,albany,MP,Manypeaks,-34.779833,118.217167,2022-02-22,11.2
2007190557,-34.888,118.001,TS0630,5.5,albany,WE,Wellstead,-34.489212,118.619261,2022-02-22,15.8
2007191076,-34.65,118.626,TS0626,6.5,albany,KO002,Kojaneerup South,-34.575486,118.260501,2022-02-22,5.2
2007191076,-34.65,118.626,TS0626,6.5,albany,MP,Manypeaks,-34.779833,118.217167,2022-02-22,11.2
2007191076,-34.65,118.626,TS0626,6.5,albany,WE,Wellstead,-34.489212,118.619261,2022-02-22,15.8
2007191144,-34.401,118.726,TS0623,6.0,albany,KO002,Kojaneerup South,-34.575486,118.260501,2022-02-22,5.2
2007191144,-34.401,118.726,TS0623,6.0,albany,MP,Manypeaks,-34.779833,118.217167,2022-02-22,11.2
2007191144,-34.401,118.726,TS0623,6.0,albany,WE,Wellstead,-34.489212,118.619261,2022-02-22,15.8
2007190067,-31.234,121.962,TS0561,6.0,coolgardie,BTSD,DFES-D Boorabbin,-31.2143,120.2593,2022-02-22,9.2
2007190664,-31.672,121.62,TS0569,7.0,coolgardie,BTSD,DFES-D Boorabbin,-31.2143,120.2593,2022-02-22,9.2
2007190717,-30.963,121.292,TS0549,8.0,coolgardie,BTSD,DFES-D Boorabbin,-31.2143,120.2593,2022-02-22,9.2
2007190901,-31.351,120.209,TS0564,8.0,coolgardie,BTSD,DFES-D Boorabbin,-31.2143,120.2593,2022-02-22,9.2
2007191121,-31.234,121.962,TS0561,6.5,coolgardie,BTSD,DFES-D Boorabbin,-31.2143,120.2593,2022-02-22,9.2
2007190071,-32.052,118.166,TS0586,6.0,bruce rock,SH002,Babakin,-32.12548,118.00406,2022-02-22,1.0
2007190071,-32.052,118.166,TS0586,6.0,bruce rock,ME004,Belka East,-31.7285278,118.2979722,2022-02-22,21.0
2007190071,-32.052,118.166,TS0586,6.0,bruce rock,SH001,Shackleton,-31.9456,117.8383,2022-02-22,28.8
2007190289,-32.051,118.166,TS0586,6.0,bruce rock,SH002,Babakin,-32.12548,118.00406,2022-02-22,1.0
2007190289,-32.051,118.166,TS0586,6.0,bruce rock,ME004,Belka East,-31.7285278,118.2979722,2022-02-22,21.0
2007190289,-32.051,118.166,TS0586,6.0,bruce rock,SH001,Shackleton,-31.9456,117.8383,2022-02-22,28.8
2007190073,-32.573,118.451,TS0598,6.5,kulin,KI001,Kulin,-32.790382,118.301848,2022-02-22,3.4
2007190073,-32.573,118.451,TS0598,6.5,kulin,PN001,Pingaring,-32.7340833,118.627139,2022-02-22,1.2
2007190086,-32.761,115.906,TS0596,6.0,murray,SOLS,Mount Solus,-32.47,116.214333,2022-02-22,0.0
2007190086,-32.761,115.906,TS0596,6.0,murray,PI001,Pinjarra,-32.695554,115.916265,2022-02-22,1.8
2007190101,-31.629,115.73,TS0573,7.0,wanneroo,PINJ,Pinjar Tower,-31.658787,115.776057,2022-02-22,3.2
2007190101,-31.629,115.73,TS0573,7.0,wanneroo,WN,Wanneroo,-31.583153,115.694155,2022-02-22,0.2
2007190163,-32.912,115.823,TS0601,5.0,waroona,WR,Waroona,-32.856145,115.894339,2022-02-22,1.8
2007190207,-32.999,118.555,TS0604,7.5,lake grace,DR001,Dragon Rocks,-32.8497,119.038966,2022-02-22,17.0
2007190207,-32.999,118.555,TS0604,7.5,lake grace,LK,Lake King,-33.025421,119.800027,2022-02-22,16.2
2007190207,-32.999,118.555,TS0604,7.5,lake grace,MG001,Magenta,-33.27912,119.16365,2022-02-22,20.4
2007190207,-32.999,118.555,TS0604,7.5,lake grace,NE,Newdegate,-33.112956,118.839964,2022-02-22,13.0
2007190459,-32.789,118.591,TS0600,6.0,lake grace,DR001,Dragon Rocks,-32.8497,119.038966,2022-02-22,17.0
2007190459,-32.789,118.591,TS0600,6.0,lake grace,LK,Lake King,-33.025421,119.800027,2022-02-22,16.2
2007190459,-32.789,118.591,TS0600,6.0,lake grace,MG001,Magenta,-33.27912,119.16365,2022-02-22,20.4
2007190459,-32.789,118.591,TS0600,6.0,lake grace,NE,Newdegate,-33.112956,118.839964,2022-02-22,13.0
2007191296,-32.941,120.345,TS0602,8.0,lake grace,DR001,Dragon Rocks,-32.8497,119.038966,2022-02-22,17.0
2007191296,-32.941,120.345,TS0602,8.0,lake grace,LK,Lake King,-33.025421,119.800027,2022-02-22,16.2
2007191296,-32.941,120.345,TS0602,8.0,lake grace,MG001,Magenta,-33.27912,119.16365,2022-02-22,20.4
2007191296,-32.941,120.345,TS0602,8.0,lake grace,NE,Newdegate,-33.112956,118.839964,2022-02-22,13.0
2007190235,-24.7,115.309,TS0391,8.0,upper gascoyne,BTSA,DFES-A Portable,-25.055,115.2096,2022-02-22,13.4
2007190282,-24.107,116.455,TS0373,8.0,upper gascoyne,BTSA,DFES-A Portable,-25.055,115.2096,2022-02-22,13.4
2007190342,-25.147,116.934,TS0404,7.5,upper gascoyne,BTSA,DFES-A Portable,-25.055,115.2096,2022-02-22,13.4
2007190915,-25.193,115.511,TS0406,7.5,upper gascoyne,BTSA,DFES-A Portable,-25.055,115.2096,2022-02-22,13.4
2007190976,-25.045,117.587,TS0401,8.0,upper gascoyne,BTSA,DFES-A Portable,-25.055,115.2096,2022-02-22,13.4
2007190989,-25.147,116.933,TS0404,7.0,upper gascoyne,BTSA,DFES-A Portable,-25.055,115.2096,2022-02-22,13.4
2007191377,-25.742,115.124,TS0416,8.0,upper gascoyne,BTSA,DFES-A Portable,-25.055,115.2096,2022-02-22,13.4
2007191392,-25.026,115.864,TS0402,8.0,upper gascoyne,BTSA,DFES-A Portable,-25.055,115.2096,2022-02-22,13.4
2007191419,-24.025,115.674,TS0367,8.0,upper gascoyne,BTSA,DFES-A Portable,-25.055,115.2096,2022-02-22,13.4
2007191503,-24.75,116.26,TS0389,7.5,upper gascoyne,BTSA,DFES-A Portable,-25.055,115.2096,2022-02-22,13.4
2007190281,-23.892,113.995,TS0368,7.5,carnarvon,CA,Carnarvon 1,-24.851402,113.731443,2022-02-22,3.6
2007190541,-24.958,114.807,TS0396,7.5,carnarvon,CA,Carnarvon 1,-24.851402,113.731443,2022-02-22,3.6
2007190683,-23.754,114.391,TS0363,8.0,carnarvon,CA,Carnarvon 1,-24.851402,113.731443,2022-02-22,3.6
2007190691,-25.996,114.316,TS0471,8.0,carnarvon,CA,Carnarvon 1,-24.851402,113.731443,2022-02-22,3.6
2007190803,-25.753,114.202,TS0421,7.5,carnarvon,CA,Carnarvon 1,-24.851402,113.731443,2022-02-22,3.6
2007190923,-25.742,114.295,TS0469,8.5,carnarvon,CA,Carnarvon 1,-24.851402,113.731443,2022-02-22,3.6
2007191018,-25.059,113.971,TS0405,7.0,carnarvon,CA,Carnarvon 1,-24.851402,113.731443,2022-02-22,3.6
2007191021,-23.293,113.921,TS0347,8.5,carnarvon,CA,Carnarvon 1,-24.851402,113.731443,2022-02-22,3.6
2007191126,-23.631,113.986,TS0359,8.0,carnarvon,CA,Carnarvon 1,-24.851402,113.731443,2022-02-22,3.6
2007191172,-23.707,113.898,TS0371,8.0,carnarvon,CA,Carnarvon 1,-24.851402,113.731443,2022-02-22,3.6
2007191192,-24.818,113.811,TS0397,7.5,carnarvon,CA,Carnarvon 1,-24.851402,113.731443,2022-02-22,3.6
2007191339,-24.819,113.809,TS0397,8.0,carnarvon,CA,Carnarvon 1,-24.851402,113.731443,2022-02-22,3.6
2007191384,-24.518,114.014,TS0372,8.0,carnarvon,CA,Carnarvon 1,-24.851402,113.731443,2022-02-22,3.6
2007191408,-24.64,113.845,TS0386,8.0,carnarvon,CA,Carnarvon 1,-24.851402,113.731443,2022-02-22,3.6
2007191571,-25.311,114.124,TS0409,7.5,carnarvon,CA,Carnarvon 1,-24.851402,113.731443,2022-02-22,3.6
2007190287,-29.551,115.813,TS0468,8.5,three springs,TS001,Three Springs,-29.52322,115.85893,2022-02-22,25.2
2007190311,-30.539,115.226,TS0542,7.0,dandaragan,BA,Badgingarra,-30.338049,115.539491,2022-02-22,0.4
2007190311,-30.539,115.226,TS0542,7.0,dandaragan,BCAB,DBCA-B Portable,-30.2762,115.0926,2022-02-22,0.0
2007190311,-30.539,115.226,TS0542,7.0,dandaragan,DG001,Dandaragan East,-30.826939,115.763161,2022-02-22,6.6
2007190311,-30.539,115.226,TS0542,7.0,dandaragan,JB001,Jurien Bay,-30.29605,115.2213,2022-02-22,8.6
2007190311,-30.539,115.226,TS0542,7.0,dandaragan,LE,Lancelin East,-30.884833,115.407943,2022-02-22,0.4
2007190311,-30.539,115.226,TS0542,7.0,dandaragan,MZ002,Moora NW,-30.612997,115.897434,2022-02-22,5.6
2007190959,-30.3,115.197,TS0541,5.0,dandaragan,BA,Badgingarra,-30.338049,115.539491,2022-02-22,0.4
2007190959,-30.3,115.197,TS0541,5.0,dandaragan,BCAB,DBCA-B Portable,-30.2762,115.0926,2022-02-22,0.0
2007190959,-30.3,115.197,TS0541,5.0,dandaragan,DG001,Dandaragan East,-30.826939,115.763161,2022-02-22,6.6
2007190959,-30.3,115.197,TS0541,5.0,dandaragan,JB001,Jurien Bay,-30.29605,115.2213,2022-02-22,8.6
2007190959,-30.3,115.197,TS0541,5.0,dandaragan,LE,Lancelin East,-30.884833,115.407943,2022-02-22,0.4
2007190959,-30.3,115.197,TS0541,5.0,dandaragan,MZ002,Moora NW,-30.612997,115.897434,2022-02-22,5.6
2007191230,-30.877,115.651,TS0544,6.0,dandaragan,BA,Badgingarra,-30.338049,115.539491,2022-02-22,0.4
2007191230,-30.877,115.651,TS0544,6.0,dandaragan,BCAB,DBCA-B Portable,-30.2762,115.0926,2022-02-22,0.0
2007191230,-30.877,115.651,TS0544,6.0,dandaragan,DG001,Dandaragan East,-30.826939,115.763161,2022-02-22,6.6
2007191230,-30.877,115.651,TS0544,6.0,dandaragan,JB001,Jurien Bay,-30.29605,115.2213,2022-02-22,8.6
2007191230,-30.877,115.651,TS0544,6.0,dandaragan,LE,Lancelin East,-30.884833,115.407943,2022-02-22,0.4
2007191230,-30.877,115.651,TS0544,6.0,dandaragan,MZ002,Moora NW,-30.612997,115.897434,2022-02-22,5.6
2007191259,-30.539,115.227,TS0542,6.0,dandaragan,BA,Badgingarra,-30.338049,115.539491,2022-02-22,0.4
2007191259,-30.539,115.227,TS0542,6.0,dandaragan,BCAB,DBCA-B Portable,-30.2762,115.0926,2022-02-22,0.0
2007191259,-30.539,115.227,TS0542,6.0,dandaragan,DG001,Dandaragan East,-30.826939,115.763161,2022-02-22,6.6
2007191259,-30.539,115.227,TS0542,6.0,dandaragan,JB001,Jurien Bay,-30.29605,115.2213,2022-02-22,8.6
2007191259,-30.539,115.227,TS0542,6.0,dandaragan,LE,Lancelin East,-30.884833,115.407943,2022-02-22,0.4
2007191259,-30.539,115.227,TS0542,6.0,dandaragan,MZ002,Moora NW,-30.612997,115.897434,2022-02-22,5.6
2007191353,-30.698,115.585,TS0546,6.0,dandaragan,BA,Badgingarra,-30.338049,115.539491,2022-02-22,0.4
2007191353,-30.698,115.585,TS0546,6.0,dandaragan,BCAB,DBCA-B Portable,-30.2762,115.0926,2022-02-22,0.0
2007191353,-30.698,115.585,TS0546,6.0,dandaragan,DG001,Dandaragan East,-30.826939,115.763161,2022-02-22,6.6
2007191353,-30.698,115.585,TS0546,6.0,dandaragan,JB001,Jurien Bay,-30.29605,115.2213,2022-02-22,8.6
2007191353,-30.698,115.585,TS0546,6.0,dandaragan,LE,Lancelin East,-30.884833,115.407943,2022-02-22,0.4
2007191353,-30.698,115.585,TS0546,6.0,dandaragan,MZ002,Moora NW,-30.612997,115.897434,2022-02-22,5.6
2007190408,-33.315,115.837,TS0603,5.0,harvey,BJ,Brunswick Junction,-33.270855,115.79648,2022-02-22,6.6
2007190408,-33.315,115.837,TS0603,5.0,harvey,HV,Harvey,-33.062245,115.854561,2022-02-22,2.4
2007190408,-33.315,115.837,TS0603,5.0,harvey,LG,Logue Brook,-32.99347,115.93958,2022-02-22,3.4
2007190408,-33.315,115.837,TS0603,5.0,harvey,MY,Myalup,-33.091703,115.717528,2022-02-22,1.2
2007190418,-31.14,118.478,TS0558,6.0,merredin,SB001,Burracoppin South,-31.58752,118.6972,2022-02-22,29.8
2007190418,-31.14,118.478,TS0558,6.0,merredin,ME,Merredin,-31.493128,118.226202,2022-02-22,28.2
2007190418,-31.14,118.478,TS0558,6.0,merredin,ME002,Merredin NG In,-31.485436,118.220944,2022-02-22,23.2
2007190418,-31.14,118.478,TS0558,6.0,merredin,ME003,Merredin NG Out,-31.484965,118.221424,2022-02-22,23.6
2007190566,-29.279,115.166,TS0455,7.0,irwin,AN001,Allanooka,-29.063612,114.997161,2022-02-20,0.0
2007190636,-31.297,115.56,TS0566,6.5,gingin,GW,Gingin West,-31.331817,115.603514,2022-02-22,0.8
2007190636,-31.297,115.56,TS0566,6.5,gingin,MOOR,Moore River,-31.175592,115.500219,2019-10-12,0.0
2007190636,-31.297,115.56,TS0566,6.5,gingin,RF001,Regans Ford,-31.00103,115.680233,2022-02-22,0.4
2007190651,-31.748,116.672,TS0575,6.0,northam,MK,Muresk,-31.72772,116.69127,2022-02-22,0.0
2007190651,-31.748,116.672,TS0575,6.0,northam,NO,Northam,-31.651611,116.694194,2022-02-22,3.2
2007191506,-31.659,116.721,TS0574,5.5,northam,MK,Muresk,-31.72772,116.69127,2022-02-22,0.0
2007191506,-31.659,116.721,TS0574,5.5,northam,NO,Northam,-31.651611,116.694194,2022-02-22,3.2
2007190701,-32.122,118.208,TS0590,9.0,narembeen,NB002,Mount Walker,-32.055417,118.81817,2022-02-22,56.6
2007190701,-32.122,118.208,TS0590,9.0,narembeen,NB001,Narembeen,-32.10805,118.40635,2022-02-22,26.2
2007190707,-33.403,117.742,TS0606,8.0,dumbleyung,DU001,Dumbleyung,-33.322317,117.749167,2022-02-22,4.4
2007190707,-33.403,117.742,TS0606,8.0,dumbleyung,DU002,Dumbleyung GRDC,-33.33905,117.784184,2022-02-22,0.4
2007190710,-31.807,117.654,TS0578,6.5,kellerberrin,KE001,Kellerberrin,-31.6179,117.7203,2022-02-22,8.8
2007190726,-33.61,115.559,TS0608,6.0,capel,CL001,Capel,-33.60946667,115.6406667,2022-02-22,4.4
2007190730,-34.162,115.184,TS0621,6.5,augusta margaret river,BCAA,DBCA-A Portable,-33.935,115.0842,2022-02-22,14.4
2007190730,-34.162,115.184,TS0621,6.5,augusta margaret river,KR001,Karridale,-34.227964,115.143141,2022-02-22,18.4
2007190730,-34.162,115.184,TS0621,6.5,augusta margaret river,LAWS,Lawson Road,-33.894133,115.4506,2022-02-22,4.2
2007190730,-34.162,115.184,TS0621,6.5,augusta margaret river,MR002,Margaret River,-33.971865,115.105013,2022-02-22,25.0
2007190730,-34.162,115.184,TS0621,6.5,augusta margaret river,RB001,Rosa Brook,-33.936255,115.219066,2022-02-22,11.4
2007190730,-34.162,115.184,TS0621,6.5,augusta margaret river,SR001,Scott River,-34.25065,115.28935,2022-02-22,14.0
2007190769,-30.928,117.383,TS0551,7.5,koorda,KO001,Koorda,-30.828382,117.501453,2022-02-22,12.0
2007190810,-32.121,116.033,TS0587,6.0,armadale,GE001,Glen Eagle,-32.252814,116.141504,2022-02-22,4.6
2007190818,-34.266,119.403,TS0622,6.5,jerramungup,BY001,Bremer Bay,-34.382888,119.32666,2022-02-22,22.6
2007190818,-34.266,119.403,TS0622,6.5,jerramungup,GA001,Gairdner,-34.305433,119.09855,2022-02-22,18.0
2007190818,-34.266,119.403,TS0622,6.5,jerramungup,JE002,Jerramungup Town,-33.944644,118.913419,2022-02-22,18.4
2007191157,-34.266,119.402,TS0622,7.0,jerramungup,BY001,Bremer Bay,-34.382888,119.32666,2022-02-22,22.6
2007191157,-34.266,119.402,TS0622,7.0,jerramungup,GA001,Gairdner,-34.305433,119.09855,2022-02-22,18.0
2007191157,-34.266,119.402,TS0622,7.0,jerramungup,JE002,Jerramungup Town,-33.944644,118.913419,2022-02-22,18.4
2007190861,-29.545,116.714,TS0461,5.5,perenjori,CE002,Carnamah East,-29.69999,116.14498,2022-02-22,25.8
2007190861,-29.545,116.714,TS0461,5.5,perenjori,LA001,Latham,-29.7974,116.5539,2022-02-22,63.2
2007190861,-29.545,116.714,TS0461,5.5,perenjori,PJ001,Perenjori,-29.42313,116.28129,2022-02-22,20.0
2007191589,-29.273,116.426,TS0451,8.0,perenjori,CE002,Carnamah East,-29.69999,116.14498,2022-02-22,25.8
2007191589,-29.273,116.426,TS0451,8.0,perenjori,LA001,Latham,-29.7974,116.5539,2022-02-22,63.2
2007191589,-29.273,116.426,TS0451,8.0,perenjori,PJ001,Perenjori,-29.42313,116.28129,2022-02-22,20.0
2007190954,-33.518,116.807,TS0607,5.0,west arthur,CD001,Cordering,-33.538306,116.606491,2022-02-22,1.4
2007190954,-33.518,116.807,TS0607,5.0,west arthur,DK001,Darkan,-33.26455,116.8262,2022-02-22,0.0
2007191130,-30.842,118.267,TS0548,6.5,mukinbudin,MU001,Mukinbudin,-30.9187,118.2506,2022-02-22,28.8
2007191134,-29.907,115.996,TS0533,6.5,coorow,CW001,Coorow,-29.93692095,115.9720375,2022-02-22,10.0
2007191134,-29.907,115.996,TS0533,6.5,coorow,ML001,Warradarge East,-30.039117,115.49881,2022-02-22,3.4
2007191282,-29.908,115.995,TS0533,7.5,coorow,CW001,Coorow,-29.93692095,115.9720375,2022-02-22,10.0
2007191282,-29.908,115.995,TS0533,7.5,coorow,ML001,Warradarge East,-30.039117,115.49881,2022-02-22,3.4
2007191194,-34.958,117.041,TS0628,5.0,denmark,BTSF,DFES-F Portable,-35.0298,117.144,2022-02-10,27.6
2007191194,-34.958,117.041,TS0628,5.0,denmark,BTSG,DFES-G Portable,-34.9312,117.179,2022-02-10,10.8
2007191194,-34.958,117.041,TS0628,5.0,denmark,DM001,Denmark,-34.95226,117.370933,2022-02-22,19.4
2007191194,-34.958,117.041,TS0628,5.0,denmark,DM002,Quickup Dam,-34.905084,117.377723,2022-02-22,23.8
2007191366,-29.851,115.154,TS0532,6.5,carnamah,EN001,Eneabba,-29.77764,115.31929,2022-02-22,0.2
2007191438,-29.871,117.715,TS0465,8.0,mount marshall,BE001,Beacon,-30.47333,117.88111,2022-02-22,25.2
2007191438,-29.871,117.715,TS0465,8.0,mount marshall,BC001,Bencubbin,-30.818056,117.864758,2022-02-22,33.4
2007191533,-29.742,117.799,TS0467,7.5,mount marshall,BE001,Beacon,-30.47333,117.88111,2022-02-22,25.2
2007191533,-29.742,117.799,TS0467,7.5,mount marshall,BC001,Bencubbin,-30.818056,117.864758,2022-02-22,33.4
2007191491,-33.427,115.712,TS0605,7.0,dardanup,DA,Dardanup (Waterloo),-33.33677,115.783505,2022-02-22,2.2
2007191491,-33.427,115.712,TS0605,7.0,dardanup,DA002,Dardanup 2,-33.38717,115.86655,2022-02-22,5.0
2007191559,-32.244,117.039,TS0594,7.5,beverley,EB,East Beverley,-32.142505,117.173785,2022-02-22,2.6
2007191559,-32.244,117.039,TS0594,7.5,beverley,DALE,Mount Dale,-32.126141,116.299525,2021-03-13,0.0
